[Satellite]
VERSION=1.1
NAME=NCUBE-2
NICKNAME=NCUBE-2
TLE1=1 28897U 05043H   11060.17683274  .00000247  00000-0  60459-4 0  3830
TLE2=2 28897  97.9803 300.5344 0016626 197.2858 162.7759 14.60209768276782
